OBJECT_NAME,OBJECT_ID,EPOCH,MEAN_MOTION,ECCENTRICITY,INCLINATION,RA_OF_ASC_NODE,ARG_OF_PERICENTER,MEAN_ANOMALY,EPHEMERIS_TYPE,CLASSIFICATION_TYPE,NORAD_CAT_ID,ELEMENT_SET_NO,REV_AT_EPOCH,BSTAR,MEAN_MOTION_DOT,MEAN_MOTION_DDOT
LEMUR-1,2014-033AL,2026-07-07T08:52:22.060128,14.85321522,.004843,97.7901,337.7295,13.6614,346.5900,0,U,40044,999,64846,.17399E-3,.1471E-4,0
LEMUR-2-GREENBERG,2017-042N,2026-07-07T11:17:36.910176,15.31983818,.0007168,97.3833,9.0113,292.6231,67.4252,0,U,42837,999,49149,.36947E-3,.11344E-3,0
LEMUR-2-ANDIS,2017-042P,2026-07-06T17:39:02.431584,15.35678970,.0007107,97.3685,8.5318,293.7973,66.2525,0,U,42838,999,49145,.51664E-3,.17878E-3,0
LEMUR-2-MONSON,2017-042Q,2026-07-07T10:59:43.408320,15.28615242,.0005147,97.4095,8.9398,281.0533,79.0128,0,U,42839,999,49126,.3728E-3,.10309E-3,0
LEMUR-2-FURIAUS,2017-042R,2026-07-07T06:46:26.532192,15.30948738,.0006636,97.3782,6.7334,0.8117,359.3134,0,U,42840,999,49128,.41096E-3,.12226E-3,0
LEMUR-2-PETERG,2017-042S,2026-07-07T10:45:59.616288,15.34821414,.0002863,97.4001,13.5239,258.0828,102.0094,0,U,42841,999,49154,.47712E-3,.16045E-3,0
LEMUR-2-DEMBITZ,2017-042T,2026-07-06T10:51:09.921888,15.30918269,.0005291,97.3834,8.9463,313.9812,46.0993,0,U,42842,999,49129,.57818256E-3,.17223E-3,0
LEMUR-2-ZACHARY,2017-042W,2026-07-07T12:15:32.904000,15.52177976,.000233,97.3592,20.6045,286.9112,73.1885,0,U,42845,999,49235,.57787E-3,.34993E-3,0
LEMUR-2-AMANDA-SVANTE,2021-034B,2026-07-06T04:46:01.886016,15.35552160,.00040367,97.5745,266.0000,164.2126,195.9244,0,U,48269,999,28397,.1020665E-2,.35315E-3,0
LEMUR-2-SPECIAL-K,2021-034F,2026-07-06T05:41:36.307392,15.71456484,.0005773,97.5636,275.5626,220.9079,139.1750,0,U,48273,999,28467,.18452951E-2,.241712E-2,0
LEMUR-2-EMBRIONOVIS,2023-084AQ,2026-07-07T08:57:42.516000,15.38085565,.0007751,97.6318,333.3577,236.9428,123.1072,0,U,56970,999,17078,.26323E-3,.979E-4,0
LEMUR-2-DEVERILL-M-T,2023-100F,2026-07-07T01:10:38.891136,15.40798333,.0004826,99.4457,232.5577,332.4144,27.6839,0,U,57391,999,16430,.51594E-3,.21057E-3,0
LEMUR-2-BASS,2023-174D,2026-07-07T12:04:19.390080,15.43808592,.0007978,97.3840,273.5081,101.1477,259.0668,0,U,58259,999,14849,.27695E-3,.12471E-3,0
LEMUR-2-JK0903EM1407,2023-174CJ,2026-07-07T04:38:09.062016,15.52763120,.0004296,97.3914,279.2419,58.9562,301.2112,0,U,58336,999,14883,.33311E-3,.20526E-3,0
LEMUR-2-MJR092620,2023-174CN,2026-07-07T11:49:07.095936,15.45659820,.0006034,97.3968,278.9055,55.9255,304.2566,0,U,58340,999,14878,.27764E-3,.1331E-3,0
LEMUR-2-NIMBUS2000,2024-022A,2026-07-07T00:31:18.539040,15.40867104,.000953,97.4093,38.2803,55.1826,305.0316,0,U,58899,999,13532,.40709E-3,.16668E-3,0
LEMUR-2-VALHALLA,2024-022B,2026-07-07T00:33:46.290816,15.40309483,.0010016,97.4094,38.2595,51.0671,309.1466,0,U,58900,999,13532,.29263E-3,.11733E-3,0
LEMUR-2-CAEL,2024-022E,2026-07-07T01:56:52.108224,15.41661151,.0007979,97.4077,39.2893,37.3970,322.7831,0,U,58903,999,13540,.3104E-3,.13015E-3,0
LEMUR-2-JOHNNYTRUONG,2024-043BA,2026-07-07T09:41:37.748832,15.62091018,.0004359,97.5392,341.3839,116.1044,244.0662,0,U,59146,999,13119,.38549E-3,.33713E-3,0
LEMUR-2-TOMATOKECHUP,2024-149D,2026-07-06T17:07:24.161376,15.36460405,.0002908,97.3789,269.8148,137.9028,222.2440,0,U,60471,999,10516,.255E-3,.8991E-4,0
LEMUR-2-STELLA,2024-149BT,2026-07-07T11:09:12.597696,15.12261782,.0001081,97.6725,271.0135,110.4219,249.7127,0,U,60533,999,10356,.41983E-3,.7196E-4,0
LEMUR-2-MARHISYAM,2024-149BW,2026-07-07T04:30:30.642624,15.11670752,.0002783,97.6871,271.2045,81.1160,279.0384,0,U,60536,999,10350,.47483E-3,.8016E-4,0
LEMUR-2-AHMED-ASRAR,2024-149DN,2026-07-07T04:51:28.592064,15.13187548,.0000574,97.6994,273.3904,259.3398,100.7767,0,U,60576,999,10359,.46359E-3,.8163E-4,0
LEMUR-2-LLOYD,2024-149DP,2026-07-07T11:02:38.251680,15.09650711,.000491,97.6734,269.6046,90.2019,269.9772,0,U,60577,999,10345,.40278E-3,.642E-4,0
LEMUR-2-SQUIRRELCOMM,2024-149DQ,2026-07-07T04:07:02.550720,15.07390844,.0004831,97.6704,269.0219,356.7461,3.3734,0,U,60578,999,10341,.32133E-3,.48E-4,0
LEMUR-2-SIERRINI,2024-149DR,2026-07-07T11:31:23.465280,15.11403308,.0006611,97.6835,271.1672,110.2503,249.9438,0,U,60579,999,10352,.41789E-3,.6996E-4,0
LEMUR-2-WILSON,2025-009CP,2026-07-07T04:07:02.604288,14.95258050,.0002599,97.7021,266.2859,5.7645,354.3605,0,U,62694,999,8034,.23207E-3,.2497E-4,0
LEMUR-2-STAR-FOX,2025-009CR,2026-07-06T14:29:58.660224,15.02774699,.0003481,97.6928,269.0749,70.9430,289.2172,0,U,62696,999,8047,.42526E-3,.5629E-4,0
LEMUR-2-ARIANNA,2025-009CU,2026-07-06T04:52:28.437024,15.02770802,.00038727,97.6866,268.4362,76.7600,283.4057,0,U,62699,999,8041,.53415395E-3,.7087E-4,0
LEMUR-2-ALISIA,2025-009DB,2026-07-07T01:01:40.001376,15.03089428,.0003408,97.6951,270.0782,155.6076,204.5311,0,U,62706,999,10314,.48274E-3,.6452E-4,0
